GPS BIIR-08             
1 27663U 03005A   26095.32712677  .00000007  00000+0  00000+0 0  9994
2 27663  54.8987 217.8623 0148453  52.8923 318.3429  2.00564575169853
GPS BIIR-11             
1 28190U 04009A   26093.34366605 -.00000035  00000+0  00000+0 0  9993
2 28190  54.8926 278.7093 0112444 169.9755   4.1137  2.00557195161446
GPS BIIR-13             
1 28474U 04045A   26094.75587869 -.00000085  00000+0  00000+0 0  9996
2 28474  55.1773 327.8549 0170351 314.0213 224.9150  2.00575086156956
GPS BIIR-14M            
1 28874U 05038A   26094.99889859 -.00000021  00000+0  00000+0 0  9993
2 28874  54.9389 276.1292 0128072 295.7066  18.9187  2.00570897150360
METEOSAT-9 (MSG-2)      
1 28912U 05049B   26095.04107203  .00000127  00000+0  00000+0 0  9997
2 28912   9.1978  54.8716 0000252  23.6641 175.2828  1.00279027  6265
GPS BIIR-16M            
1 29601U 06052A   26094.62595818  .00000004  00000+0  00000+0 0  9998
2 29601  54.9494 216.9209 0087080  89.9254 271.0540  2.00553820141936
GPS BIIR-17M            
1 32260U 07047A   26094.93149622 -.00000013  00000+0  00000+0 0  9991
2 32260  54.0414  83.0831 0164095  86.2491 275.6217  2.00559152135346
GPS BIIR-18M            
1 32384U 07062A   26095.00291115 -.00000022  00000+0  00000+0 0  9999
2 32384  55.0910 277.0926 0033911 161.3571  17.5151  2.00555625134048
GOES 14                 
1 35491U 09033A   26095.13943910  .00000047  00000+0  00000+0 0  9998
2 35491   1.5015  83.9263 0001834 297.7320  44.8442  1.00111950  5855
GOES 15                 
1 36411U 10008A   26095.11577899  .00000024  00000+0  00000+0 0  9997
2 36411   1.0857  84.2910 0003366  17.7221 196.3649  1.00271739 58900
GSAT0101 (GALILEO-PFM)  
1 37846U 11060A   26093.93877219 -.00000095  00000+0  00000+0 0  9995
2 37846  57.0172 343.7769 0004100  17.7484 342.3127  1.70475877 89855
GSAT0102 (GALILEO-FM2)  
1 37847U 11060B   26094.16007975 -.00000095  00000+0  00000+0 0  9996
2 37847  57.0179 343.7712 0004811   9.1881 172.2383  1.70475892 89868
LUCH 5A                 
1 37951U 11074B   26095.20755938 -.00000046  00000+0  00000+0 0  9998
2 37951   8.5692  74.8663 0003158 285.7906  74.4996  1.00271373 52320
METEOSAT-10 (MSG-3)     
1 38552U 12035B   26095.24586322 -.00000004  00000+0  00000+0 0  9991
2 38552   4.4996  61.3216 0002412 296.9339 283.8759  1.00273516 50121
SARSAT 13 (METOP-B)     
1 38771U 12049A   26095.26400858  .00000183  00000+0  10352-3 0  9992
2 38771  98.6584 148.1921 0002474 169.7239 190.3990 14.21427867702909
GPS BIIF-3              
1 38833U 12053A   26095.02688962  .00000024  00000+0  00000+0 0  9993
2 38833  53.5702 146.5972 0177415  64.9825 296.9316  2.00566348 97974
GSAT0103 (GALILEO-FM3)  
1 38857U 12055A   26094.56573666  .00000030  00000+0  00000+0 0  9990
2 38857  55.7599 103.5640 0005910 291.5496  68.4144  1.70473519 83750
